{
    "links": {
        "self": "http://www.neowsapp.com/rest/v1/neo/3836940?api_key=iIulBulltgU6a56xZRHN4H3l9WmuAYTsLGpBGhQ2"
    },
    "id": "3836940",
    "neo_reference_id": "3836940",
    "name": "(2018 YB)",
    "designation": "2018 YB",
    "nasa_jpl_url": "http://ssd.jpl.nasa.gov/sbdb.cgi?sstr=3836940",
    "absolute_magnitude_h": 23.7,
    "estimated_diameter": {
        "kilometers": {
            "estimated_diameter_min": 0.0483676488,
            "estimated_diameter_max": 0.1081533507
        },
        "meters": {
            "estimated_diameter_min": 48.3676488219,
            "estimated_diameter_max": 108.1533506775
        },
        "miles": {
            "estimated_diameter_min": 0.0300542543,
            "estimated_diameter_max": 0.0672033557
        },
        "feet": {
            "estimated_diameter_min": 158.6865169607,
            "estimated_diameter_max": 354.8338390368
        }
    },
    "is_potentially_hazardous_asteroid": false,
    "close_approach_data": [
        {
            "close_approach_date": "2018-08-13",
            "close_approach_date_full": "2018-Aug-13 07:17",
            "epoch_date_close_approach": 1534144620000,
            "relative_velocity": {
                "kilometers_per_second": "12.1451781142",
                "kilometers_per_hour": "43722.6412109818",
                "miles_per_hour": "27167.5489235681"
            },
            "miss_distance": {
                "astronomical": "0.0360681178",
                "lunar": "14.0304978242",
                "kilometers": "5395713.597789086",
                "miles": "3352740.9610019468"
            },
            "orbiting_body": "Mars"
        },
        {
            "close_approach_date": "2018-11-23",
            "close_approach_date_full": "2018-Nov-23 05:23",
            "epoch_date_close_approach": 1542950580000,
            "relative_velocity": {
                "kilometers_per_second": "8.6196070618",
                "kilometers_per_hour": "31030.5854223931",
                "miles_per_hour": "19281.1990364864"
            },
            "miss_distance": {
                "astronomical": "0.0461233657",
                "lunar": "17.9419892573",
                "kilometers": "6899957.265951059",
                "miles": "4287434.6340762542"
            },
            "orbiting_body": "Earth"
        }
    ],
    "orbital_data": {
        "orbit_id": "4",
        "orbit_determination_date": "2019-01-09 07:14:12",
        "first_observation_date": "2018-12-16",
        "last_observation_date": "2019-01-08",
        "data_arc_in_days": 23,
        "observations_used": 21,
        "orbit_uncertainty": "8",
        "minimum_orbit_intersection": ".0224687",
        "jupiter_tisserand_invariant": "3.607",
        "epoch_osculation": "2458471.5",
        "eccentricity": ".5418669440041062",
        "semi_major_axis": "2.035414239637889",
        "inclination": "2.116805243488608",
        "ascending_node_longitude": "110.4032343709499",
        "orbital_period": "1060.663538152981",
        "perihelion_distance": ".9324905458228646",
        "perihelion_argument": "289.2850115133218",
        "aphelion_distance": "3.138337933452913",
        "perihelion_time": "2458429.080851603702",
        "mean_anomaly": "14.39749069649336",
        "mean_motion": ".3394101777335506",
        "equinox": "J2000",
        "orbit_class": {
            "orbit_class_type": "APO",
            "orbit_class_description": "Near-Earth asteroid orbits which cross the Earth’s orbit similar to that of 1862 Apollo",
            "orbit_class_range": "a (semi-major axis) > 1.0 AU; q (perihelion) < 1.017 AU"
        }
    },
    "is_sentry_object": false
}